NORAD_CAT_ID,OBJECT_NAME,OBJECT_TYPE,EPOCH,MEAN_MOTION,ECCENTRICITY,INCLINATION,RA_OF_ASC_NODE,ARG_OF_PERICENTER,MEAN_ANOMALY,BSTAR,MEAN_MOTION_DOT,MEAN_MOTION_DDOT,TLE_LINE0,TLE_LINE1,TLE_LINE2,SEMIMAJOR_AXIS,PERIOD,APOGEE,PERIGEE,DECAYED
52366.0,STARLINK-3808,PAYLOAD,2022-06-21 14:00:01,15.73270194,0.000323,53.2141,175.452,14.6893,137.5369,-0.00041315,-0.00058397,0.0,0 STARLINK-3808,1 52366U 22045AM  22172.58334491 -.00058397  00000-0 -41315-3 0  9997,2 52366  53.2141 175.4520 0003230  14.6893 137.5369 15.73270194  1300,6727.695,91.529,351.733,347.38699999999994,0.0
52366.0,STARLINK-3808,PAYLOAD,2022-06-21 22:00:00,15.73198983,0.0003024,53.2144,173.8004,15.7517,225.4593,8.5029e-05,0.00011328,0.0,0 STARLINK-3808,1 52366U 22045AM  22172.91667824  .00011328  00000-0  85029-4 0  9995,2 52366  53.2144 173.8004 0003024  15.7517 225.4593 15.73198983  1309,6727.898,91.533,351.798,347.72900000000016,0.0
52366.0,STARLINK-3808,PAYLOAD,2022-06-22 00:00:02,15.73221431,0.0003042,53.2146,173.3881,16.8923,336.6094,-0.00024664,-0.00035134,0.0,0 STARLINK-3808,1 52366U 22045AM  22173.00002315 -.00035134  00000-0 -24664-3 0  9994,2 52366  53.2146 173.3881 0003042  16.8923 336.6094 15.73221431 10904,6727.834,91.532,351.746,347.652,0.0
52366.0,STARLINK-3808,PAYLOAD,2022-06-22 14:00:01,15.7321062,0.0003321,53.2136,170.503,18.6194,40.4268,5.9107e-05,7.685e-05,0.0,0 STARLINK-3808,1 52366U 22045AM  22173.58334491  .00007685  00000-0  59107-4 0  9999,2 52366  53.2136 170.5030 0003321  18.6194  40.4268 15.73210620  1303,6727.865,91.533,351.964,347.496,0.0
52366.0,STARLINK-3808,PAYLOAD,2022-06-22 22:00:00,15.73208019,0.0002962,53.2137,168.8518,18.9459,129.0645,8.3396e-05,0.00011103,0.0,0 STARLINK-3808,1 52366U 22045AM  22173.91667824  .00011103  00000-0  83396-4 0  9992,2 52366  53.2137 168.8518 0002962  18.9459 129.0645 15.73208019 11057,6727.871999999999,91.533,351.73,347.745,0.0
52366.0,STARLINK-3808,PAYLOAD,2022-06-23 14:00:01,15.73212884,0.0003114,53.2138,165.5543,12.6183,313.2692,-0.00021999,-0.00031408,0.0,0 STARLINK-3808,1 52366U 22045AM  22174.58334491 -.00031408  00000-0 -21999-3 0  9999,2 52366  53.2138 165.5543 0003114  12.6183 313.2692 15.73212884 11150,6727.858,91.532,351.8180000000001,347.62800000000016,0.0
52366.0,STARLINK-3808,PAYLOAD,2022-06-23 22:00:00,15.73161756,0.0002883,53.2141,163.9029,12.6845,42.1391,0.0002312,0.00031901,0.0,0 STARLINK-3808,1 52366U 22045AM  22174.91667824  .00031901  00000-0  23120-3 0  9999,2 52366  53.2141 163.9029 0002883  12.6845  42.1391 15.73161756  1303,6728.004,91.535,351.809,347.93,0.0
52366.0,STARLINK-3808,PAYLOAD,2022-06-24 14:00:01,15.73224694,0.0003081,53.2134,160.6053,11.3401,221.2684,-0.00019646,-0.00028139,0.0,0 STARLINK-3808,1 52366U 22045AM  22175.58334491 -.00028139  00000-0 -19646-3 0  9993,2 52366  53.2134 160.6053 0003081  11.3401 221.2684 15.73224694 11319,6727.825,91.532,351.76300000000015,347.617,0.0
52366.0,STARLINK-3808,PAYLOAD,2022-06-24 22:00:01,15.73142115,0.0003139,53.2167,158.952,13.6633,307.9405,0.00070623,0.00099444,0.0,0 STARLINK-3808,1 52366U 22045AM  22175.91668981  .00099444  00000-0  70623-3 0  9991,2 52366  53.2167 158.9520 0003139  13.6633 307.9405 15.73142115 11365,6728.06,91.537,352.037,347.81300000000016,0.0
52366.0,STARLINK-3808,PAYLOAD,2022-06-25 06:00:00,15.73218117,0.000304,53.2136,157.3069,11.3183,39.2095,-0.00022746,-0.00032455,0.0,0 STARLINK-3808,1 52366U 22045AM  22176.25001157 -.00032455  00000-0 -22746-3 0  9999,2 52366  53.2136 157.3069 0003040  11.3183  39.2095 15.73218117 11421,6727.844,91.532,351.754,347.663,0.0
52366.0,STARLINK-3808,PAYLOAD,2022-06-25 14:00:01,15.73235408,0.0003032,53.2137,155.6564,10.4637,129.0084,1.4192e-05,1.372e-05,0.0,0 STARLINK-3808,1 52366U 22045AM  22176.58334491  .00001372  00000-0  14192-4 0  9994,2 52366  53.2137 155.6564 0003032  10.4637 129.0084 15.73235408 11471,6727.794,91.531,351.699,347.619,0.0
52366.0,STARLINK-3808,PAYLOAD,2022-06-25 22:00:00,15.73280534,0.0002865,53.2141,154.0052,15.0437,213.4071,-0.00025312,-0.00036125,0.0,0 STARLINK-3808,1 52366U 22045AM  22176.91667824 -.00036125  00000-0 -25312-3 0  9991,2 52366  53.2141 154.0052 0002865  15.0437 213.4071 15.73280534  1308,6727.666,91.528,351.458,347.603,0.0
52366.0,STARLINK-3808,PAYLOAD,2022-06-26 14:00:01,15.73248495,0.0003007,53.2136,150.707,12.262,34.2241,-0.00057655,-0.00080953,0.0,0 STARLINK-3808,1 52366U 22045AM  22177.58335648 -.00080953  00000-0 -57655-3 0  9994,2 52366  53.2136 150.7070 0003007  12.2620  34.2241 15.73248495 11632,6727.757,91.53,351.645,347.599,0.0
52366.0,STARLINK-3808,PAYLOAD,2022-06-26 22:00:00,15.73197169,0.0002809,53.214,149.0565,15.2904,120.0699,-0.00036909,-0.00052107,0.0,0 STARLINK-3808,1 52366U 22045AM  22177.91667824 -.00052107  00000-0 -36909-3 0  9994,2 52366  53.2140 149.0565 0002809  15.2904 120.0699 15.73197169  1309,6727.903,91.533,351.658,347.87800000000016,0.0
52366.0,STARLINK-3808,PAYLOAD,2022-06-27 14:00:01,15.73191807,0.0002994,53.2141,145.7584,16.3209,296.8154,4.4998e-05,5.696e-05,0.0,0 STARLINK-3808,1 52366U 22045AM  22178.58334491  .00005696  00000-0  44998-4 0  9996,2 52366  53.2141 145.7584 0002994  16.3209 296.8154 15.73191807 11783,6727.919,91.534,351.798,347.769,0.0
52366.0,STARLINK-3808,PAYLOAD,2022-06-27 22:00:00,15.73237949,0.0002856,53.2147,144.1079,17.7093,24.3534,-0.00023381,-0.00033367,0.0,0 STARLINK-3808,1 52366U 22045AM  22178.91667824 -.00033367  00000-0 -23381-3 0  9992,2 52366  53.2147 144.1079 0002856  17.7093  24.3534 15.73237949  1305,6727.7869999999975,91.531,351.5730000000001,347.731,0.0
52366.0,STARLINK-3808,PAYLOAD,2022-06-28 14:00:01,15.73217751,0.0002936,53.2144,140.8098,12.6844,207.2145,-0.00075013,-0.00104706,0.0,0 STARLINK-3808,1 52366U 22045AM  22179.58334491 -.00104706  00000-0 -75013-3 0  9992,2 52366  53.2144 140.8098 0002936  12.6844 207.2145 15.73217751 11943,6727.845,91.532,351.685,347.7340000000001,0.0
52366.0,STARLINK-3808,PAYLOAD,2022-06-28 22:00:00,15.73157293,0.0002752,53.2148,139.1598,12.7047,296.0923,0.00029009,0.00040217,0.0,0 STARLINK-3808,1 52366U 22045AM  22179.91667824  .00040217  00000-0  29009-3 0  9996,2 52366  53.2148 139.1598 0002752  12.7047 296.0923 15.73157293  1308,6728.017,91.536,351.733,348.03,0.0
52366.0,STARLINK-3808,PAYLOAD,2022-06-29 14:00:01,15.73206713,0.0002904,53.2151,135.8615,12.4649,114.1186,3.3037e-06,-1.59e-06,0.0,0 STARLINK-3808,1 52366U 22045AM  22180.58334491 -.00000159  00000-0  33037-5 0  9992,2 52366  53.2151 135.8615 0002904  12.4649 114.1186 15.73206713 12102,6727.876,91.533,351.695,347.787,0.0
52366.0,STARLINK-3808,PAYLOAD,2022-06-29 22:00:00,15.73222291,0.0002807,53.2156,134.2114,15.5185,199.9946,0.00021875,0.00030222,0.0,0 STARLINK-3808,1 52366U 22045AM  22180.91667824  .00030222  00000-0  21875-3 0  9996,2 52366  53.2156 134.2114 0002807  15.5185 199.9946 15.73222291  1309,6727.831999999999,91.532,351.585,347.80800000000005,0.0
52366.0,STARLINK-3808,PAYLOAD,2022-06-30 14:00:01,15.73202473,0.0002865,53.2154,130.9128,10.942,22.50800000000001,9.7512e-05,0.00013088,0.0,0 STARLINK-3808,1 52366U 22045AM  22181.58334491  .00013088  00000-0  97512-4 0  9994,2 52366  53.2154 130.9128 0002865  10.9420  22.5080 15.73202473  1300,6727.888000000001,91.533,351.681,347.826,0.0
52366.0,STARLINK-3808,PAYLOAD,2022-06-30 22:00:00,15.73251317,0.0002776,53.2156,129.2633,12.1312,110.242,-0.00042176,-0.00059539,0.0,0 STARLINK-3808,1 52366U 22045AM  22181.91667824 -.00059539  00000-0 -42176-3 0  9998,2 52366  53.2156 129.2633 0002776  12.1312 110.2420 15.73251317  1303,6727.749,91.53,351.481,347.746,0.0
52366.0,STARLINK-3808,PAYLOAD,2022-07-01 14:00:01,15.73197886,0.0002841,53.2157,125.9645,8.7287,291.5275,8.5638e-05,0.00011414,0.0,0 STARLINK-3808,1 52366U 22045AM  22182.58334491  .00011414  00000-0  85638-4 0  9992,2 52366  53.2157 125.9645 0002841   8.7287 291.5275 15.73197886  1306,6727.901,91.533,351.67800000000005,347.855,0.0
52366.0,STARLINK-3808,PAYLOAD,2022-07-01 22:00:00,15.73241026,0.0002824,53.2161,124.3149,9.7284,19.4449,-0.00024423,-0.00034825,0.0,0 STARLINK-3808,1 52366U 22045AM  22182.91667824 -.00034825  00000-0 -24423-3 0  9995,2 52366  53.2161 124.3149 0002824   9.7284  19.4449 15.73241026  1308,6727.778,91.531,351.543,347.74300000000005,0.0
52366.0,STARLINK-3808,PAYLOAD,2022-07-02 14:00:01,15.73195009,0.0002865,53.2159,121.016,5.8745,201.2055,0.00020737,0.00028578,0.0,0 STARLINK-3808,1 52366U 22045AM  22183.58334491  .00028578  00000-0  20737-3 0  9990,2 52366  53.2159 121.0160 0002865   5.8745 201.2055 15.73195009  1309,6727.909000000002,91.533,351.702,347.847,0.0
52366.0,STARLINK-3808,PAYLOAD,2022-07-02 22:00:00,15.73252624,0.0002782,53.2159,119.3667,8.2293,287.7977,0.00012901,0.00017565,0.0,0 STARLINK-3808,1 52366U 22045AM  22183.91667824  .00017565  00000-0  12901-3 0  9994,2 52366  53.2159 119.3667 0002782   8.2293 287.7977 15.73252624  1303,6727.745,91.53,351.482,347.73800000000006,0.0
52366.0,STARLINK-3808,PAYLOAD,2022-07-03 00:00:00,15.732686800000002,0.00029,53.2158,118.955,8.9827,39.2889,-9.2718e-05,-0.00013656,0.0,0 STARLINK-3808,1 52366U 22045AM  22184.00001157 -.00013656  00000-0 -92718-4 0  9990,2 52366  53.2158 118.9550 0002900   8.9827  39.2889 15.73268680 12640,6727.699000000001,91.529,351.515,347.61300000000006,0.0
52366.0,STARLINK-3808,PAYLOAD,2022-07-03 14:00:01,15.73236454,0.000289,53.2158,116.0672,14.8152,99.2351,-0.0007872,-0.0010987,0.0,0 STARLINK-3808,1 52366U 22045AM  22184.58334491 -.00109870  00000-0 -78720-3 0  9993,2 52366  53.2158 116.0672 0002890  14.8152  99.2351 15.73236454 12733,6727.791,91.531,351.601,347.712,0.0
52366.0,STARLINK-3808,PAYLOAD,2022-07-03 22:00:00,15.73166968,0.000295,53.2161,114.4179,18.8277,184.1407,-0.00074811,-0.00104206,0.0,0 STARLINK-3808,1 52366U 22045AM  22184.91667824 -.00104206  00000-0 -74811-3 0  9994,2 52366  53.2161 114.4179 0002950  18.8277 184.1407 15.73166968  1309,6727.989000000001,91.535,351.839,347.87,0.0
